NORAD_CAT_ID,OBJECT_NAME,OBJECT_TYPE,EPOCH,MEAN_MOTION,ECCENTRICITY,INCLINATION,RA_OF_ASC_NODE,ARG_OF_PERICENTER,MEAN_ANOMALY,BSTAR,MEAN_MOTION_DOT,MEAN_MOTION_DDOT,TLE_LINE0,TLE_LINE1,TLE_LINE2,SEMIMAJOR_AXIS,PERIOD,APOGEE,PERIGEE,DECAYED
55404.0,STARLINK-5607,PAYLOAD,2024-03-01 14:21:47,14.98332367,0.0002764,70.0001,125.5661,264.8677,95.2167,5.2349e-06,-3.1e-07,0.0,0 STARLINK-5607,1 55404U 23014P   24061.59846800 -.00000031  00000-0  52349-5 0  9994,2 55404  70.0001 125.5661 0002764 264.8677  95.2167 14.98332367 61499,6950.186,96.107,573.972,570.13,0.0
55404.0,STARLINK-5607,PAYLOAD,2024-03-02 11:11:32,14.98334611,0.0002845,69.9998,123.378,268.3969,91.6865,4.828e-05,4.83e-06,0.0,0 STARLINK-5607,1 55404U 23014P   24062.46634295  .00000483  00000-0  48280-4 0  9992,2 55404  69.9998 123.3780 0002845 268.3969  91.6865 14.98334611 60681,6950.179,96.107,574.021,570.066,0.0
55404.0,STARLINK-5607,PAYLOAD,2024-03-02 14:23:47,14.98337257,0.0002961,69.9997,123.0413,270.9946,89.0874,5.5466e-05,5.69e-06,0.0,0 STARLINK-5607,1 55404U 23014P   24062.59986046  .00000569  00000-0  55466-4 0  9999,2 55404  69.9997 123.0413 0002961 270.9946  89.0874 14.98337257 61640,6950.17,96.107,574.093,569.978,0.0
55404.0,STARLINK-5607,PAYLOAD,2024-03-03 11:13:33,14.9832738,0.0002868,70.0,120.8541,267.4697,92.6133,-3.0574e-05,-4.58e-06,0.0,0 STARLINK-5607,1 55404U 23014P   24063.46774786 -.00000458  00000-0 -30574-4 0  9994,2 55404  70.0000 120.8541 0002868 267.4697  92.6133 14.98327380 60839,6950.201,96.107,574.059,570.073,0.0
55404.0,STARLINK-5607,PAYLOAD,2024-03-03 12:49:41,14.98327341,0.0002728,70.0,120.6857,263.9452,96.1397,-4.7653e-05,-6.61e-06,0.0,0 STARLINK-5607,1 55404U 23014P   24063.53450841 -.00000661  00000-0 -47653-4 0  9997,2 55404  70.0000 120.6857 0002728 263.9452  96.1397 14.98327341 61785,6950.201,96.107,573.962,570.17,0.0
55404.0,STARLINK-5607,PAYLOAD,2024-03-04 03:14:53,14.98336944,0.0002811,69.9997,119.1711,262.6685,97.4155,-1.01e-05,-2.14e-06,0.0,0 STARLINK-5607,1 55404U 23014P   24064.13534025 -.00000214  00000-0 -10100-4 0  9992,2 55404  69.9997 119.1711 0002811 262.6685  97.4155 14.98336944 60937,6950.171,96.107,573.99,570.083,0.0
55404.0,STARLINK-5607,PAYLOAD,2024-03-04 12:51:41,14.98341527,0.0002853,69.9995,118.1603,268.1906,91.8926,4.0228e-05,3.87e-06,0.0,0 STARLINK-5607,1 55404U 23014P   24064.53589391  .00000387  00000-0  40228-4 0  9995,2 55404  69.9995 118.1603 0002853 268.1906  91.8926 14.98341527 61935,6950.157,96.106,574.005,570.039,0.0
55404.0,STARLINK-5607,PAYLOAD,2024-03-05 12:53:44,14.98314892,0.0003015,69.9992,115.6351,267.5246,92.5568,-0.00012275,-1.557e-05,0.0,0 STARLINK-5607,1 55404U 23014P   24065.53731835 -.00001557  00000-0 -12275-3 0  9990,2 55404  69.9992 115.6351 0003015 267.5246  92.5568 14.98314892 62087,6950.24,96.108,574.2,570.009,0.0
55404.0,STARLINK-5607,PAYLOAD,2024-03-05 20:54:24,14.98321986,0.0003146,69.9991,114.7934,267.1862,92.8937,-6.0337e-05,-8.13e-06,0.0,0 STARLINK-5607,1 55404U 23014P   24065.87111401 -.00000813  00000-0 -60337-4 0  9995,2 55404  69.9991 114.7934 0003146 267.1862  92.8937 14.98321986 61194,6950.218,96.108,574.269,569.896,0.0
55404.0,STARLINK-5607,PAYLOAD,2024-03-06 11:19:36,14.98332316,0.0003169,69.9989,113.2776,266.2882,93.7915,-5.0505e-05,-6.96e-06,0.0,0 STARLINK-5607,1 55404U 23014P   24066.47194856 -.00000696  00000-0 -50505-4 0  9992,2 55404  69.9989 113.2776 0003169 266.2882  93.7915 14.98332316 61281,6950.186,96.107,574.253,569.848,0.0
55404.0,STARLINK-5607,PAYLOAD,2024-03-06 12:55:44,14.98333135,0.0003188,69.9989,113.1092,266.617,93.4624,-4.4864e-05,-6.28e-06,0.0,0 STARLINK-5607,1 55404U 23014P   24066.53870788 -.00000628  00000-0 -44864-4 0  9990,2 55404  69.9989 113.1092 0003188 266.6170  93.4624 14.98333135 62236,6950.183,96.107,574.264,569.832,0.0
55404.0,STARLINK-5607,PAYLOAD,2024-03-07 12:57:45,14.98329883,0.000326,69.9988,110.585,266.8054,93.2732,0.00018873,2.16e-05,0.0,0 STARLINK-5607,1 55404U 23014P   24067.54010458  .00002160  00000-0  18873-3 0  9993,2 55404  69.9988 110.5850 0003260 266.8054  93.2732 14.98329883 62381,6950.193,96.107,574.324,569.792,0.0
55404.0,STARLINK-5607,PAYLOAD,2024-03-08 12:59:45,14.98339657,0.0003115,69.999,108.0599,268.5039,91.5763,8.6623e-05,9.41e-06,0.0,0 STARLINK-5607,1 55404U 23014P   24068.54149886  .00000941  00000-0  86623-4 0  9996,2 55404  69.9990 108.0599 0003115 268.5039  91.5763 14.98339657 62539,6950.163,96.106,574.193,569.863,0.0
55404.0,STARLINK-5607,PAYLOAD,2024-03-09 03:24:58,14.9833213,0.000299,69.9992,106.5451,269.1785,90.9031,-8.0896e-05,-1.058e-05,0.0,0 STARLINK-5607,1 55404U 23014P   24069.14234624 -.00001058  00000-0 -80896-4 0  9996,2 55404  69.9992 106.5451 0002990 269.1785  90.9031 14.98332130 61681,6950.186,96.107,574.129,569.973,0.0
55404.0,STARLINK-5607,PAYLOAD,2024-03-09 11:25:39,14.98330099,0.0002938,69.9994,105.7041,267.0726,93.0097,-7.7536e-05,-1.018e-05,0.0,0 STARLINK-5607,1 55404U 23014P   24069.47614678 -.00001018  00000-0 -77536-4 0  9996,2 55404  69.9994 105.7041 0002938 267.0726  93.0097 14.98330099 62671,6950.193,96.107,574.1,570.016,0.0
55404.0,STARLINK-5607,PAYLOAD,2024-03-09 19:26:19,14.9833566,0.0002972,69.9993,104.8614,270.3644,89.7174,-0.00010593,-1.357e-05,0.0,0 STARLINK-5607,1 55404U 23014P   24069.80994330 -.00001357  00000-0 -10593-3 0  9994,2 55404  69.9993 104.8614 0002972 270.3644  89.7174 14.98335660 62723,6950.175,96.107,574.106,569.975,0.0
55404.0,STARLINK-5607,PAYLOAD,2024-03-10 03:26:59,14.98334006,0.0002964,69.9989,104.0188,267.1769,92.9051,-3.4135e-05,-5e-06,0.0,0 STARLINK-5607,1 55404U 23014P   24070.14374104 -.00000500  00000-0 -34135-4 0  9992,2 55404  69.9989 104.0188 0002964 267.1769  92.9051 14.98334006 61833,6950.181,96.107,574.106,569.985,0.0
55404.0,STARLINK-5607,PAYLOAD,2024-03-10 11:27:39,14.98335005,0.0003037,69.999,103.1784,269.1021,90.979,-4.4589e-05,-6.25e-06,0.0,0 STARLINK-5607,1 55404U 23014P   24070.47753981 -.00000625  00000-0 -44589-4 0  9994,2 55404  69.9990 103.1784 0003037 269.1021  90.9790 14.98335005 62820,6950.177,96.107,574.153,569.932,0.0
55404.0,STARLINK-5607,PAYLOAD,2024-03-11 05:05:08,14.98324239,0.0003092,69.9989,101.3267,269.7234,90.357,-1.839e-05,-3.12e-06,0.0,0 STARLINK-5607,1 55404U 23014P   24071.21190578 -.00000312  00000-0 -18390-4 0  9998,2 55404  69.9989 101.3267 0003092 269.7234  90.3570 14.98324239 61991,6950.211,96.107,574.225,569.927,0.0
55404.0,STARLINK-5607,PAYLOAD,2024-03-11 11:29:40,14.98325159,0.0003086,69.9988,100.6533,269.8874,90.1932,-7.3398e-06,-1.81e-06,0.0,0 STARLINK-5607,1 55404U 23014P   24071.47894569 -.00000181  00000-0 -73398-5 0  9991,2 55404  69.9988 100.6533 0003086 269.8874  90.1932 14.98325159 62973,6950.208,96.107,574.218,569.928,0.0
55404.0,STARLINK-5607,PAYLOAD,2024-03-12 05:07:09,14.98331058,0.0003119,69.9986,98.8014,269.8809,90.1993,6.0495e-06,-2.1e-07,0.0,0 STARLINK-5607,1 55404U 23014P   24072.21330185 -.00000021  00000-0  60495-5 0  9999,2 55404  69.9986  98.8014 0003119 269.8809  90.1993 14.98331058 62149,6950.19,96.107,574.222,569.887,0.0
55404.0,STARLINK-5607,PAYLOAD,2024-03-12 19:32:22,14.98317688,0.000307,69.9987,97.2861,263.0949,96.9861,0.0002626,3.041e-05,0.0,0 STARLINK-5607,1 55404U 23014P   24072.81414359  .00003041  00000-0  26260-3 0  9995,2 55404  69.9987  97.2861 0003070 263.0949  96.9861 14.98317688 63175,6950.231,96.108,574.23,569.962,0.0
55404.0,STARLINK-5607,PAYLOAD,2024-03-13 11:33:42,14.9831609,0.0002845,69.999,95.6031,267.08,93.0034,0.00031277,3.64e-05,0.0,0 STARLINK-5607,1 55404U 23014P   24073.48174266  .00003640  00000-0  31277-3 0  9998,2 55404  69.9990  95.6031 0002845 267.0800  93.0034 14.98316090 62332,6950.236,96.108,574.078,570.124,0.0
55404.0,STARLINK-5607,PAYLOAD,2024-03-14 05:11:10,14.98332656,0.0002989,69.999,93.7515,270.992,89.0896,-1.0425e-05,-2.17e-06,0.0,0 STARLINK-5607,1 55404U 23014P   24074.21609918 -.00000217  00000-0 -10425-4 0  9999,2 55404  69.9990  93.7515 0002989 270.9920  89.0896 14.98332656 62442,6950.185,96.107,574.127,569.972,0.0
55404.0,STARLINK-5607,PAYLOAD,2024-03-14 06:47:19,14.98332615,0.0002988,69.999,93.5831,271.0119,89.0698,-1.0702e-05,-2.21e-06,0.0,0 STARLINK-5607,1 55404U 23014P   24074.28285909 -.00000221  00000-0 -10702-4 0  9999,2 55404  69.9990  93.5831 0002988 271.0119  89.0698 14.98332615 63392,6950.185,96.107,574.127,569.973,0.0
55404.0,STARLINK-5607,PAYLOAD,2024-03-14 11:35:43,14.98333609,0.0002964,69.999,93.0781,271.2856,88.7963,8.4419e-06,8e-08,0.0,0 STARLINK-5607,1 55404U 23014P   24074.48313747  .00000008  00000-0  84419-5 0  9991,2 55404  69.9990  93.0781 0002964 271.2856  88.7963 14.98333609 63424,6950.182,96.107,574.107,569.987,0.0
55404.0,STARLINK-5607,PAYLOAD,2024-03-15 10:01:36,14.98327888,0.0002911,69.999,90.7217,270.5409,89.5416,-4.8559e-05,-6.72e-06,0.0,0 STARLINK-5607,1 55404U 23014P   24075.41778210 -.00000672  00000-0 -48559-4 0  9998,2 55404  69.9990  90.7217 0002911 270.5409  89.5416 14.98327888 62625,6950.199,96.107,574.088,570.041,0.0
55404.0,STARLINK-5607,PAYLOAD,2024-03-16 10:03:37,14.98330078,0.0002918,69.9987,88.1966,264.5624,95.5202,-1.3426e-05,-2.53e-06,0.0,0 STARLINK-5607,1 55404U 23014P   24076.41917923 -.00000253  00000-0 -13426-4 0  9995,2 55404  69.9987  88.1966 0002918 264.5624  95.5202 14.98330078 62773,6950.193,96.107,574.086,570.03,0.0
55404.0,STARLINK-5607,PAYLOAD,2024-03-17 10:05:38,14.9832772,0.0002956,69.9987,85.6717,264.9345,95.1477,3.4395e-05,3.17e-06,0.0,0 STARLINK-5607,1 55404U 23014P   24077.42057978  .00000317  00000-0  34395-4 0  9999,2 55404  69.9987  85.6717 0002956 264.9345  95.1477 14.98327720 62922,6950.2,96.107,574.119,570.01,0.0
55404.0,STARLINK-5607,PAYLOAD,2024-03-18 10:07:39,14.98327203,0.000289,69.999,83.1464,262.2231,97.86,-1.1962e-05,-2.36e-06,0.0,0 STARLINK-5607,1 55404U 23014P   24078.42198212 -.00000236  00000-0 -11962-4 0  9994,2 55404  69.9990  83.1464 0002890 262.2231  97.8600 14.98327203 63070,6950.202,96.107,574.075,570.058,0.0
